OBJECT_NAME,OBJECT_ID,EPOCH,MEAN_MOTION,ECCENTRICITY,INCLINATION,RA_OF_ASC_NODE,ARG_OF_PERICENTER,MEAN_ANOMALY,EPHEMERIS_TYPE,CLASSIFICATION_TYPE,NORAD_CAT_ID,ELEMENT_SET_NO,REV_AT_EPOCH,BSTAR,MEAN_MOTION_DOT,MEAN_MOTION_DDOT
TANAGER-1,2024-149AR,2026-06-15T17:37:44.858208,15.44920515,.00040107,97.2612,260.9852,316.0052,44.0877,0,U,60507,999,10281,.87702047E-4,.4035E-4,0
EAGLEEYE,2024-149AS,2026-06-16T05:09:07.443072,15.70740411,.0004208,97.3731,260.4983,238.6404,121.4447,0,U,60508,999,10278,.64414E-3,.80227E-3,0
FLOCK 4BE-29,2024-149AT,2026-06-16T04:59:26.093760,15.44121280,.00013999,97.3820,253.0656,299.2938,60.8170,0,U,60509,999,10226,.31306275E-3,.14246E-3,0
TRANSPORTER-11 OBJECT AU,2024-149AU,2026-06-16T11:21:27.335520,15.40205882,.00022526,97.3736,251.1876,293.8982,66.2028,0,U,60510,999,10220,.30536003E-3,.12187E-3,0
FLOCK 4BE-2,2024-149AV,2026-06-16T14:35:36.388320,15.52654950,.00033602,97.3842,254.8857,256.0946,103.9933,0,U,60511,999,10241,.78129306E-3,.48246E-3,0
FLOCK 4BE-13,2024-149AW,2026-06-16T04:22:44.657184,15.41865063,.00028602,97.3728,251.5831,265.5801,94.5119,0,U,60512,999,10221,.26904638E-3,.11334E-3,0
FLOCK 4BE-27,2024-149AX,2026-06-16T05:11:26.317248,15.34432094,.000255,97.3830,249.0666,321.5091,38.5970,0,U,60513,999,10199,.22214E-3,.7328E-4,0
FLOCK 4BE-9,2024-149AY,2026-06-16T04:20:28.639392,15.40771339,.00013914,97.3798,251.4423,303.5107,56.6007,0,U,60514,999,10216,.3253545E-3,.13237E-3,0
FLOCK 4BE-6,2024-149BA,2026-06-16T05:00:45.689760,15.39552291,.00020576,97.3798,250.8311,300.4978,59.6064,0,U,60516,999,10212,.28666734E-3,.11191E-3,0
FLOCK 4BE-14,2024-149BB,2026-06-16T04:38:38.176224,15.40966782,.00030422,97.3703,250.9507,297.4122,62.6815,0,U,60517,999,10217,.34145059E-3,.13989E-3,0
FLOCK 4BE-1,2024-149BC,2026-06-16T05:03:03.383712,15.42573409,.00028208,97.3787,252.2416,293.9500,66.1452,0,U,60518,999,10222,.33019231E-3,.14269E-3,0
FLOCK 4BE-28,2024-149BD,2026-06-16T11:38:42.945792,15.44890640,.00029248,97.3754,253.2419,287.1087,72.9841,0,U,60519,999,10233,.3288053E-3,.15367E-3,0
IPERDRONE.0,2024-149BE,2026-06-16T05:17:39.412320,15.66529048,.0003562,97.3783,260.3844,226.9330,133.1632,0,U,60520,999,10276,.62721E-3,.65654E-3,0
TRANSPORTER-11 OBJECT BF,2024-149BF,2026-06-16T05:52:51.199392,15.84353019,.0005972,97.3763,263.1105,234.3640,125.7074,0,U,60521,999,10293,.97933E-3,.22696E-2,0
CONNECTA IOT-2,2024-149BG,2026-06-16T12:33:48.280608,15.23970422,.00055907,97.3843,245.6789,340.4812,19.6210,0,U,60522,999,10179,.15249384E-3,.362E-4,0
CONNECTA IOT-4,2024-149BJ,2026-06-16T05:36:56.520000,15.42110376,.0004023,97.3806,251.5926,289.4331,70.6481,0,U,60524,999,10218,.34686E-3,.14766E-3,0
ORESAT0.5,2024-149BK,2026-06-16T11:17:36.787488,15.45057795,.00040678,97.3729,253.4593,275.8631,84.2154,0,U,60525,999,10236,.35613264E-3,.16752E-3,0
DEIMOS,2024-149BL,2026-06-16T12:03:25.622496,15.44203187,.00040157,97.3788,253.6325,284.9604,75.1199,0,U,60526,999,10234,.33278969E-3,.15197E-3,0
CUAVA-2,2024-149BM,2026-06-16T04:06:28.678464,15.36098121,.00052273,97.3734,248.6884,299.7094,60.3629,0,U,60527,999,10201,.29335668E-3,.1024E-3,0
ERNST,2024-149BN,2026-06-16T04:40:15.556800,15.39189278,.00044569,97.3816,250.9064,303.4001,56.6817,0,U,60528,999,10212,.29614813E-3,.1143E-3,0
TORO,2024-149BQ,2026-06-16T10:29:47.965344,14.96424629,.00015829,97.6792,242.1193,81.8876,278.2525,0,U,60530,999,9984,.15622355E-3,.1714E-4,0
HYPSO-2,2024-149BR,2026-06-16T04:46:57.306432,14.98785000,.00005117,97.6814,243.4749,28.0995,332.0256,0,U,60531,999,9990,.16068278E-3,.1878E-4,0
LEMU NGE,2024-149BS,2026-06-16T10:46:25.095648,14.94953492,.0002134,97.6845,242.4235,64.0696,296.0744,0,U,60532,999,9984,.11871772E-3,.124E-4,0
LEMUR-2-STELLA,2024-149BT,2026-06-16T11:39:57.490848,15.11800011,.00017485,97.6744,249.9376,95.7986,264.3444,0,U,60533,999,10039,.56590363E-3,.9602E-4,0
SATELIOT_2,2024-149BU,2026-06-16T06:58:40.693728,14.96359638,.0002106,97.6832,242.2630,96.3461,263.8000,0,U,60534,999,9983,.20061E-3,.2214E-4,0
NIGHTJAR,2024-149BV,2026-06-16T10:59:22.112448,14.99015365,.00013213,97.6846,244.1754,77.4216,282.7154,0,U,60535,999,14276,.16299643E-3,.1917E-4,0
LEMUR-2-MARHISYAM,2024-149BW,2026-06-16T14:21:56.115360,15.11250851,.00032845,97.6882,250.4990,119.2400,240.9159,0,U,60536,999,10039,.50655552E-3,.8457E-4,0
SATELIOT_4,2024-149BX,2026-06-16T12:03:21.156480,14.96669504,.0003317,97.6744,241.9991,62.1617,297.9941,0,U,60537,999,9987,.15380789E-3,.1698E-4,0
PICO-02A021,2024-149BY,2026-06-15T23:14:19.225248,15.03241779,.00049638,97.6752,245.8092,31.2057,328.9462,0,U,60538,999,9955,.3789323E-3,.5072E-4,0
ICEYE-X43,2024-149BZ,2026-06-16T03:52:11.053056,14.99611038,.00082026,97.6784,244.1397,87.8913,272.3250,0,U,60539,999,9996,.29731546E-3,.3603E-4,0
