TANAGER-1               
1 60507U 24149AR  26166.73454697  .00004035  00000+0  87702-4 0  9993
2 60507  97.2612 260.9852 0004010 316.0052  44.0877 15.44920515102819
EAGLEEYE                
1 60508U 24149AS  26167.21466948  .00080227  00000+0  64414-3 0  9991
2 60508  97.3731 260.4983 0004208 238.6404 121.4447 15.70740411102785
FLOCK 4BE-29            
1 60509U 24149AT  26167.20794090  .00014246  00000+0  31306-3 0  9995
2 60509  97.3820 253.0656 0001399 299.2938  60.8170 15.44121280102263
TRANSPORTER-11 OBJECT AU
1 60510U 24149AU  26167.47323305  .00012187  00000+0  30536-3 0  9999
2 60510  97.3736 251.1876 0002252 293.8982  66.2028 15.40205882102205
FLOCK 4BE-2             
1 60511U 24149AV  26167.60806005  .00048246  00000+0  78129-3 0  9993
2 60511  97.3842 254.8857 0003360 256.0946 103.9933 15.52654950102419
FLOCK 4BE-13            
1 60512U 24149AW  26167.18246131  .00011334  00000+0  26905-3 0  9998
2 60512  97.3728 251.5831 0002860 265.5801  94.5119 15.41865063102214
FLOCK 4BE-27            
1 60513U 24149AX  26167.21627682  .00007328  00000+0  22214-3 0  9994
2 60513  97.3830 249.0666 0002550 321.5091  38.5970 15.34432094101990
FLOCK 4BE-9             
1 60514U 24149AY  26167.18088703  .00013237  00000+0  32535-3 0  9999
2 60514  97.3798 251.4423 0001391 303.5107  56.6007 15.40771339102169
FLOCK 4BE-6             
1 60516U 24149BA  26167.20886215  .00011191  00000+0  28667-3 0  9996
2 60516  97.3798 250.8311 0002057 300.4978  59.6064 15.39552291102126
FLOCK 4BE-14            
1 60517U 24149BB  26167.19349741  .00013989  00000+0  34145-3 0  9998
2 60517  97.3703 250.9507 0003042 297.4122  62.6815 15.40966782102171
FLOCK 4BE-1             
1 60518U 24149BC  26167.21045583  .00014269  00000+0  33019-3 0  9990
2 60518  97.3787 252.2416 0002820 293.9500  66.1452 15.42573409102226
FLOCK 4BE-28            
1 60519U 24149BD  26167.48521928  .00015367  00000+0  32881-3 0  9998
2 60519  97.3754 253.2419 0002924 287.1087  72.9841 15.44890640102335
IPERDRONE.0             
1 60520U 24149BE  26167.22059505  .00065654  00000+0  62721-3 0  9999
2 60520  97.3783 260.3844 0003562 226.9330 133.1632 15.66529048102761
TRANSPORTER-11 OBJECT BF
1 60521U 24149BF  26167.24503703  .00226960  00000+0  97933-3 0  9998
2 60521  97.3763 263.1105 0005972 234.3640 125.7074 15.84353019102934
CONNECTA IOT-2          
1 60522U 24149BG  26167.52347547  .00003620  00000+0  15249-3 0  9998
2 60522  97.3843 245.6789 0005590 340.4812  19.6210 15.23970422101795
CONNECTA IOT-4          
1 60524U 24149BJ  26167.23398750  .00014766  00000+0  34686-3 0  9999
2 60524  97.3806 251.5926 0004023 289.4331  70.6481 15.42110376102189
ORESAT0.5               
1 60525U 24149BK  26167.47056467  .00016752  00000+0  35613-3 0  9990
2 60525  97.3729 253.4593 0004067 275.8631  84.2154 15.45057795102361
DEIMOS                  
1 60526U 24149BL  26167.50237989  .00015197  00000+0  33279-3 0  9993
2 60526  97.3788 253.6325 0004015 284.9604  75.1199 15.44203187102349
CUAVA-2                 
1 60527U 24149BM  26167.17116526  .00010240  00000+0  29336-3 0  9993
2 60527  97.3734 248.6884 0005227 299.7094  60.3629 15.36098121102017
ERNST                   
1 60528U 24149BN  26167.19462450  .00011430  00000+0  29615-3 0  9998
2 60528  97.3816 250.9064 0004456 303.4001  56.6817 15.39189278102125
TORO                    
1 60530U 24149BQ  26167.43736071  .00001714  00000+0  15622-3 0  9998
2 60530  97.6792 242.1193 0001582  81.8876 278.2525 14.96424629 99840
HYPSO-2                 
1 60531U 24149BR  26167.19927438  .00001878  00000+0  16068-3 0  9997
2 60531  97.6814 243.4749 0000511  28.0995 332.0256 14.98785000 99905
LEMU NGE                
1 60532U 24149BS  26167.44890157  .00001240  00000+0  11872-3 0  9994
2 60532  97.6845 242.4235 0002134  64.0696 296.0744 14.94953492 99842
LEMUR-2-STELLA          
1 60533U 24149BT  26167.48608207  .00009602  00000+0  56590-3 0  9998
2 60533  97.6744 249.9376 0001748  95.7986 264.3444 15.11800011100398
SATELIOT_2              
1 60534U 24149BU  26167.29074877  .00002214  00000+0  20061-3 0  9994
2 60534  97.6832 242.2630 0002106  96.3461 263.8000 14.96359638 99834
NIGHTJAR                
1 60535U 24149BV  26167.45789482  .00001917  00000+0  16300-3 0  9998
2 60535  97.6846 244.1754 0001321  77.4216 282.7154 14.99015365142764
LEMUR-2-MARHISYAM       
1 60536U 24149BW  26167.59856615  .00008457  00000+0  50656-3 0  9995
2 60536  97.6882 250.4990 0003284 119.2400 240.9159 15.11250851100397
SATELIOT_4              
1 60537U 24149BX  26167.50232820  .00001698  00000+0  15381-3 0  9999
2 60537  97.6744 241.9991 0003317  62.1617 297.9941 14.96669504 99876
PICO-02A021             
1 60538U 24149BY  26166.96827807  .00005072  00000+0  37893-3 0  9996
2 60538  97.6752 245.8092 0004963  31.2057 328.9462 15.03241779 99551
ICEYE-X43               
1 60539U 24149BZ  26167.16123904  .00003603  00000+0  29732-3 0  9998
2 60539  97.6784 244.1397 0008202  87.8913 272.3250 14.99611038 99960
